FORMOSAT 7-3
1 44343U 19036E   26204.52954666  .00004214  00000+0  23160-3 0  9999
2 44343  23.9992 288.3663 0000704  32.7900 327.2647 15.10040783388742
